{"fetched_at":"2026-03-29T16:36:15Z","count":15609,"tles":[{"name":"STARLINK-31726","line1":"1 59739U 24090K   26087.65133475 -.00005187  00000+0 -17916-3 0  9994","line2":"2 59739  43.0022  76.1049 0001138 266.8527  93.2194 15.27567548106344","category":"Starlink"}]}