{
  "norad_id": 59739,
  "name": "STARLINK-31726",
  "history": [
    {
      "epoch": "2026-03-28T15:37:55.322400Z",
      "apogee_km": 483.8673951180963,
      "perigee_km": 482.30536900293555,
      "latitude_deg": -2.6855929566555626e-05,
      "longitude_deg": 15.555640708144276,
      "height_km": 482.9059843884037,
      "semi_major_axis_km": 6861.223382060515,
      "eccentricity": 0.00011383,
      "inclination_deg": 43.0022,
      "raan_deg": 76.1049,
      "arg_perigee_deg": 266.8527,
      "mean_anomaly_deg": 93.2194,
      "mean_motion_rev_day": 15.27567548
    }
  ]
}